*******************************************************************************
Ephemeris / WWW_USER Mon Mar 24 11:47:43 2025 Pasadena, USA      / Horizons    
*******************************************************************************
Target body name: (2018 WV1)                      {source: JPL#17}
Center body name: Earth (399)                     {source: DE441}
Center-site name: Gemini South Obs., Cerro Pachon
*******************************************************************************
Start time      : A.D. 2018-Aug-07 22:22:00.0000 UT      
Stop  time      : A.D. 2018-Aug-08 11:14:00.0000 UT      
Step-size       : 1 minutes
*******************************************************************************
Target pole/equ : undefined
Target radii    : undefined                                                    
Center geodetic : 289.2634, -30.2406227, 2.71233  {E-lon(deg),Lat(deg),Alt(km)}
Center cylindric: 289.2634,5517.21435,-3194.81213 {E-lon(deg),Dxy(km),Dz(km)}
Center pole/equ : ITRF93                          {East-longitude positive}
Center radii    : 6378.137, 6378.137, 6356.752 km {Equator_a, b, pole_c}       
Target primary  : Sun
Vis. interferer : MOON (R_eq= 1737.400) km        {source: DE441}
Rel. light bend : Sun                             {source: DE441}
Rel. lght bnd GM: 1.3271E+11 km^3/s^2                                          
Small-body perts: Yes                             {source: SB441-N16}
Atmos refraction: NO (AIRLESS)
RA format       : HMS
Time format     : CAL 
Calendar mode   : Mixed Julian/Gregorian
RTS-only print  : NO       
EOP file        : eop.250321.p250617                                           
EOP coverage    : DATA-BASED 1962-JAN-20 TO 2025-MAR-21. PREDICTS-> 2025-JUN-16
Units conversion: 1 au= 149597870.700 km, c= 299792.458 km/s, 1 day= 86400.0 s 
Table cut-offs 1: Elevation (-90.0deg=NO ),Airmass (>38.000=NO), Daylight (YES)
Table cut-offs 2: Solar elongation (  0.0,180.0=NO ),Local Hour Angle( 0.0=NO )
Table cut-offs 3: RA/DEC angular rate (     0.0=NO )                           
*******************************************************************************
Initial IAU76/J2000 heliocentric ecliptic osculating elements (au, days, deg.):
  EPOCH=  2458458.5 ! 2018-Dec-06.00 (TDB)         Residual RMS= .12928        
   EC= .06869100257422787  QR= .9715505345748198   TP= 2458416.866413563       
   OM= 248.5061090469913   W=  141.3742304527303   IN= 1.905403987972275       
  Equivalent ICRF heliocentric cartesian coordinates (au, au/d):
   X= 2.787163119783287E-01  Y= 8.719775267121872E-01  Z= 3.748421051204766E-01
  VX=-1.676682657337402E-02 VY= 5.516972965834891E-03 VZ= 1.749720915605096E-03
Asteroid physical parameters (km, seconds, rotational period in hours):        
   GM= n.a.                RAD= n.a.               ROTPER= n.a.                
   H= 30.3                 G= .150                 B-V= n.a.                   
                           ALBEDO= n.a.            STYP= n.a.                  
*******************************************************************************
 Date__(UT)__HR:MN     R.A._________(ICRF)_________DEC
******************************************************
$$SOE
 2018-Aug-07 22:22 C   00 47 07.485037 +07 51 48.78417
 2018-Aug-07 22:23 C   00 47 07.568609 +07 51 49.40077
 2018-Aug-07 22:24 C   00 47 07.652161 +07 51 50.01743
 2018-Aug-07 22:25 C   00 47 07.735693 +07 51 50.63417
 2018-Aug-07 22:26 C   00 47 07.819205 +07 51 51.25098
 2018-Aug-07 22:27 C   00 47 07.902695 +07 51 51.86785
 2018-Aug-07 22:28 C   00 47 07.986166 +07 51 52.48480
 2018-Aug-07 22:29 C   00 47 08.069615 +07 51 53.10182
 2018-Aug-07 22:30 C   00 47 08.153043 +07 51 53.71891
 2018-Aug-07 22:31 C   00 47 08.236450 +07 51 54.33607
 2018-Aug-07 22:32 C   00 47 08.319836 +07 51 54.95330
 2018-Aug-07 22:33 C   00 47 08.403201 +07 51 55.57059
 2018-Aug-07 22:34 C   00 47 08.486543 +07 51 56.18796
 2018-Aug-07 22:35 C   00 47 08.569864 +07 51 56.80539
 2018-Aug-07 22:36 C   00 47 08.653164 +07 51 57.42290
 2018-Aug-07 22:37 C   00 47 08.736441 +07 51 58.04047
 2018-Aug-07 22:38 C   00 47 08.819695 +07 51 58.65811
 2018-Aug-07 22:39 N   00 47 08.902928 +07 51 59.27582
 2018-Aug-07 22:40 N   00 47 08.986138 +07 51 59.89360
 2018-Aug-07 22:41 N   00 47 09.069325 +07 52 00.51144
 2018-Aug-07 22:42 N   00 47 09.152490 +07 52 01.12936
 2018-Aug-07 22:43 N   00 47 09.235631 +07 52 01.74734
 2018-Aug-07 22:44 N   00 47 09.318750 +07 52 02.36538
 2018-Aug-07 22:45 N   00 47 09.401845 +07 52 02.98350
 2018-Aug-07 22:46 N   00 47 09.484917 +07 52 03.60168
 2018-Aug-07 22:47 N   00 47 09.567965 +07 52 04.21993
 2018-Aug-07 22:48 N   00 47 09.650989 +07 52 04.83824
 2018-Aug-07 22:49 N   00 47 09.733990 +07 52 05.45662
 2018-Aug-07 22:50 N   00 47 09.816967 +07 52 06.07507
 2018-Aug-07 22:51 N   00 47 09.899920 +07 52 06.69358
 2018-Aug-07 22:52 N   00 47 09.982848 +07 52 07.31216
 2018-Aug-07 22:53 N   00 47 10.065752 +07 52 07.93080
 2018-Aug-07 22:54 N   00 47 10.148631 +07 52 08.54951
 2018-Aug-07 22:55 N   00 47 10.231486 +07 52 09.16829
 2018-Aug-07 22:56 N   00 47 10.314316 +07 52 09.78712
 2018-Aug-07 22:57 N   00 47 10.397121 +07 52 10.40603
 2018-Aug-07 22:58 N   00 47 10.479901 +07 52 11.02499
 2018-Aug-07 22:59 N   00 47 10.562655 +07 52 11.64403
 2018-Aug-07 23:00 N   00 47 10.645385 +07 52 12.26312
 2018-Aug-07 23:01 N   00 47 10.728088 +07 52 12.88228
 2018-Aug-07 23:02 N   00 47 10.810766 +07 52 13.50150
 2018-Aug-07 23:03 N   00 47 10.893419 +07 52 14.12079
 2018-Aug-07 23:04 N   00 47 10.976045 +07 52 14.74014
 2018-Aug-07 23:05 N   00 47 11.058645 +07 52 15.35955
 2018-Aug-07 23:06 N   00 47 11.141219 +07 52 15.97902
 2018-Aug-07 23:07 N   00 47 11.223767 +07 52 16.59856
 2018-Aug-07 23:08 A   00 47 11.306288 +07 52 17.21816
 2018-Aug-07 23:09 A   00 47 11.388782 +07 52 17.83782
 2018-Aug-07 23:10 A   00 47 11.471250 +07 52 18.45754
 2018-Aug-07 23:11 A   00 47 11.553691 +07 52 19.07732
 2018-Aug-07 23:12 A   00 47 11.636105 +07 52 19.69716
 2018-Aug-07 23:13 A   00 47 11.718491 +07 52 20.31707
 2018-Aug-07 23:14 A   00 47 11.800851 +07 52 20.93703
 2018-Aug-07 23:15 A   00 47 11.883183 +07 52 21.55706
 2018-Aug-07 23:16 A   00 47 11.965487 +07 52 22.17715
 2018-Aug-07 23:17 A   00 47 12.047764 +07 52 22.79729
 2018-Aug-07 23:18 A   00 47 12.130013 +07 52 23.41750
 2018-Aug-07 23:19 A   00 47 12.212234 +07 52 24.03777
 2018-Aug-07 23:20 A   00 47 12.294427 +07 52 24.65809
 2018-Aug-07 23:21 A   00 47 12.376591 +07 52 25.27847
 2018-Aug-07 23:22 A   00 47 12.458728 +07 52 25.89892
 2018-Aug-07 23:23 A   00 47 12.540836 +07 52 26.51942
 2018-Aug-07 23:24 A   00 47 12.622915 +07 52 27.13998
 2018-Aug-07 23:25 A   00 47 12.704965 +07 52 27.76059
 2018-Aug-07 23:26 A   00 47 12.786987 +07 52 28.38127
 2018-Aug-07 23:27 A   00 47 12.868980 +07 52 29.00200
 2018-Aug-07 23:28 A   00 47 12.950943 +07 52 29.62279
 2018-Aug-07 23:29 A   00 47 13.032878 +07 52 30.24364
 2018-Aug-07 23:30 A   00 47 13.114783 +07 52 30.86454
 2018-Aug-07 23:31 A   00 47 13.196659 +07 52 31.48550
 2018-Aug-07 23:32 A   00 47 13.278505 +07 52 32.10651
 2018-Aug-07 23:33 A   00 47 13.360321 +07 52 32.72759
 2018-Aug-07 23:34 A   00 47 13.442107 +07 52 33.34871
 2018-Aug-07 23:35 A   00 47 13.523864 +07 52 33.96990
 2018-Aug-07 23:36     00 47 13.605590 +07 52 34.59113
 2018-Aug-07 23:37     00 47 13.687286 +07 52 35.21243
 2018-Aug-07 23:38     00 47 13.768952 +07 52 35.83378
 2018-Aug-07 23:39     00 47 13.850588 +07 52 36.45518
 2018-Aug-07 23:40     00 47 13.932193 +07 52 37.07663
 2018-Aug-07 23:41     00 47 14.013767 +07 52 37.69814
 2018-Aug-07 23:42     00 47 14.095310 +07 52 38.31971
 2018-Aug-07 23:43     00 47 14.176823 +07 52 38.94132
 2018-Aug-07 23:44     00 47 14.258304 +07 52 39.56299
 2018-Aug-07 23:45     00 47 14.339755 +07 52 40.18471
 2018-Aug-07 23:46     00 47 14.421174 +07 52 40.80649
 2018-Aug-07 23:47     00 47 14.502562 +07 52 41.42832
 2018-Aug-07 23:48     00 47 14.583918 +07 52 42.05019
 2018-Aug-07 23:49     00 47 14.665242 +07 52 42.67213
 2018-Aug-07 23:50     00 47 14.746535 +07 52 43.29411
 2018-Aug-07 23:51     00 47 14.827796 +07 52 43.91614
 2018-Aug-07 23:52     00 47 14.909026 +07 52 44.53822
 2018-Aug-07 23:53     00 47 14.990223 +07 52 45.16036
 2018-Aug-07 23:54     00 47 15.071388 +07 52 45.78254
 2018-Aug-07 23:55     00 47 15.152520 +07 52 46.40478
 2018-Aug-07 23:56     00 47 15.233621 +07 52 47.02706
 2018-Aug-07 23:57     00 47 15.314688 +07 52 47.64939
 2018-Aug-07 23:58     00 47 15.395724 +07 52 48.27178
 2018-Aug-07 23:59     00 47 15.476726 +07 52 48.89421
 2018-Aug-08 00:00     00 47 15.557696 +07 52 49.51669
 2018-Aug-08 00:01     00 47 15.638633 +07 52 50.13922
 2018-Aug-08 00:02     00 47 15.719536 +07 52 50.76179
 2018-Aug-08 00:03     00 47 15.800407 +07 52 51.38441
 2018-Aug-08 00:04     00 47 15.881244 +07 52 52.00709
 2018-Aug-08 00:05     00 47 15.962049 +07 52 52.62980
 2018-Aug-08 00:06     00 47 16.042819 +07 52 53.25257
 2018-Aug-08 00:07     00 47 16.123556 +07 52 53.87538
 2018-Aug-08 00:08     00 47 16.204260 +07 52 54.49824
 2018-Aug-08 00:09     00 47 16.284929 +07 52 55.12114
 2018-Aug-08 00:10     00 47 16.365565 +07 52 55.74409
 2018-Aug-08 00:11     00 47 16.446167 +07 52 56.36708
 2018-Aug-08 00:12     00 47 16.526735 +07 52 56.99012
 2018-Aug-08 00:13     00 47 16.607269 +07 52 57.61321
 2018-Aug-08 00:14     00 47 16.687768 +07 52 58.23633
 2018-Aug-08 00:15     00 47 16.768234 +07 52 58.85951
 2018-Aug-08 00:16     00 47 16.848664 +07 52 59.48272
 2018-Aug-08 00:17     00 47 16.929061 +07 53 00.10598
 2018-Aug-08 00:18     00 47 17.009422 +07 53 00.72928
 2018-Aug-08 00:19     00 47 17.089749 +07 53 01.35263
 2018-Aug-08 00:20     00 47 17.170041 +07 53 01.97602
 2018-Aug-08 00:21     00 47 17.250298 +07 53 02.59945
 2018-Aug-08 00:22     00 47 17.330520 +07 53 03.22292
 2018-Aug-08 00:23     00 47 17.410707 +07 53 03.84643
 2018-Aug-08 00:24     00 47 17.490859 +07 53 04.46999
